{
    "links": {
        "self": "http://www.neowsapp.com/rest/v1/neo/3773744?api_key=iIulBulltgU6a56xZRHN4H3l9WmuAYTsLGpBGhQ2"
    },
    "id": "3773744",
    "neo_reference_id": "3773744",
    "name": "(2017 FB157)",
    "designation": "2017 FB157",
    "nasa_jpl_url": "http://ssd.jpl.nasa.gov/sbdb.cgi?sstr=3773744",
    "absolute_magnitude_h": 27.7,
    "estimated_diameter": {
        "kilometers": {
            "estimated_diameter_min": 0.0076657557,
            "estimated_diameter_max": 0.0171411509
        },
        "meters": {
            "estimated_diameter_min": 7.6657557353,
            "estimated_diameter_max": 17.1411509231
        },
        "miles": {
            "estimated_diameter_min": 0.0047632783,
            "estimated_diameter_max": 0.0106510141
        },
        "feet": {
            "estimated_diameter_min": 25.1501180466,
            "estimated_diameter_max": 56.2373735944
        }
    },
    "is_potentially_hazardous_asteroid": false,
    "close_approach_data": [
        {
            "close_approach_date": "1996-04-19",
            "close_approach_date_full": "1996-Apr-19 22:22",
            "epoch_date_close_approach": 829952520000,
            "relative_velocity": {
                "kilometers_per_second": "10.7234731829",
                "kilometers_per_hour": "38604.5034582784",
                "miles_per_hour": "23987.3371627286"
            },
            "miss_distance": {
                "astronomical": "0.2776478149",
                "lunar": "108.0049999961",
                "kilometers": "41535521.719194263",
                "miles": "25808976.4181683094"
            },
            "orbiting_body": "Earth"
        },
        {
            "close_approach_date": "2013-04-30",
            "close_approach_date_full": "2013-Apr-30 23:00",
            "epoch_date_close_approach": 1367362800000,
            "relative_velocity": {
                "kilometers_per_second": "15.9021200183",
                "kilometers_per_hour": "57247.6320657914",
                "miles_per_hour": "35571.4522688802"
            },
            "miss_distance": {
                "astronomical": "0.4538556258",
                "lunar": "176.5498384362",
                "kilometers": "67895834.907197046",
                "miles": "42188515.5038733948"
            },
            "orbiting_body": "Earth"
        },
        {
            "close_approach_date": "2017-03-15",
            "close_approach_date_full": "2017-Mar-15 05:18",
            "epoch_date_close_approach": 1489555080000,
            "relative_velocity": {
                "kilometers_per_second": "2.5123808756",
                "kilometers_per_hour": "9044.5711520661",
                "miles_per_hour": "5619.9447805713"
            },
            "miss_distance": {
                "astronomical": "0.016214956",
                "lunar": "6.307617884",
                "kilometers": "2425722.87974372",
                "miles": "1507274.304234536"
            },
            "orbiting_body": "Earth"
        },
        {
            "close_approach_date": "2021-01-23",
            "close_approach_date_full": "2021-Jan-23 16:34",
            "epoch_date_close_approach": 1611419640000,
            "relative_velocity": {
                "kilometers_per_second": "6.6145299086",
                "kilometers_per_hour": "23812.3076709977",
                "miles_per_hour": "14796.0419525707"
            },
            "miss_distance": {
                "astronomical": "0.1397519045",
                "lunar": "54.3634908505",
                "kilometers": "20906587.241643415",
                "miles": "12990750.922832527"
            },
            "orbiting_body": "Earth"
        },
        {
            "close_approach_date": "2025-01-11",
            "close_approach_date_full": "2025-Jan-11 13:41",
            "epoch_date_close_approach": 1736602860000,
            "relative_velocity": {
                "kilometers_per_second": "12.8948485493",
                "kilometers_per_hour": "46421.4547775934",
                "miles_per_hour": "28844.4867199996"
            },
            "miss_distance": {
                "astronomical": "0.3475042375",
                "lunar": "135.1791483875",
                "kilometers": "51985893.745974125",
                "miles": "32302536.485227925"
            },
            "orbiting_body": "Earth"
        }
    ],
    "orbital_data": {
        "orbit_id": "2",
        "orbit_determination_date": "2017-04-06 08:18:52",
        "first_observation_date": "2017-03-29",
        "last_observation_date": "2017-04-03",
        "data_arc_in_days": 5,
        "observations_used": 25,
        "orbit_uncertainty": "8",
        "minimum_orbit_intersection": ".00891752",
        "jupiter_tisserand_invariant": "5.262",
        "epoch_osculation": "2457843.5",
        "eccentricity": ".1720679520884682",
        "semi_major_axis": "1.206211955813857",
        "inclination": "1.107645401602833",
        "ascending_node_longitude": "147.2320645744345",
        "orbital_period": "483.8757640735041",
        "perihelion_distance": ".998661534792341",
        "perihelion_argument": "9.625657218892918",
        "aphelion_distance": "1.413762376835374",
        "perihelion_time": "2457811.537831226510",
        "mean_anomaly": "23.77961785395084",
        "mean_motion": ".7439926252336819",
        "equinox": "J2000",
        "orbit_class": {
            "orbit_class_type": "APO",
            "orbit_class_description": "Near-Earth asteroid orbits which cross the Earth’s orbit similar to that of 1862 Apollo",
            "orbit_class_range": "a (semi-major axis) > 1.0 AU; q (perihelion) < 1.017 AU"
        }
    },
    "is_sentry_object": false
}